{
  "addresses": [
    {
      "id": 1,
      "address_line_1": "06 Memorial Junction",
      "address_line_2": "628",
      "city": "Bedadung Kulon",
      "state": "CA",
      "zip": "18803"
    },
    {
      "id": 2,
      "address_line_1": "471 Basil Avenue",
      "address_line_2": "69084",
      "city": "Shijie",
      "state": "OH",
      "zip": "75070"
    },
    {
      "id": 3,
      "address_line_1": "3722 Toban Parkway",
      "address_line_2": "422",
      "city": "Plymouth",
      "state": "NY",
      "zip": "58317"
    },
    {
      "id": 4,
      "address_line_1": "6391 Linden Junction",
      "address_line_2": "3711",
      "city": "GÅ‚ogÃ³wek",
      "state": "NJ",
      "zip": "10349"
    },
    {
      "id": 5,
      "address_line_1": "36 Cottonwood Parkway",
      "address_line_2": "71",
      "city": "Weitang",
      "state": "WA",
      "zip": "42744"
    },
    {
      "id": 6,
      "address_line_1": "997 Stang Junction",
      "address_line_2": "466",
      "city": "New Bedford",
      "state": "MA",
      "zip": "02745"
    },
    {
      "id": 7,
      "address_line_1": "067 Westridge Alley",
      "address_line_2": "7",
      "city": "Phoenix",
      "state": "AZ",
      "zip": "85067"
    },
    {
      "id": 8,
      "address_line_1": "3279 Vahlen Hill",
      "address_line_2": "03",
      "city": "Lees Summit",
      "state": "MO",
      "zip": "64082"
    },
    {
      "id": 9,
      "address_line_1": "971 Vidon Park",
      "address_line_2": "185",
      "city": "Everett",
      "state": "WA",
      "zip": "98206"
    },
    {
      "id": 10,
      "address_line_1": "654 Bluestem Way",
      "address_line_2": "366",
      "city": "Roanoke",
      "state": "VA",
      "zip": "24014"
    },
    {
      "id": 11,
      "address_line_1": "8 Butternut Crossing",
      "address_line_2": "80798",
      "city": "Houston",
      "state": "TX",
      "zip": "77035"
    }
  ]
}
